{
  "type": "FeatureCollection",
  "crs": {
    "type": "name",
    "properties": {
      "name": "urn:ogc:def:crs:OGC:1.3:CRS84"
    }
  },
  "features": [
    {
      "type": "Feature",
      "properties": {
        "catchment_id": "outlet_kushak_pre_confluence",
        "name": "Kushak Nallah at Sewa Nagar / Kotla Mubarakpur (Pre-Confluence)",
        "drainage_area_km2": 14.127,
        "perimeter_km": 37.44,
        "elevation_min_m": 216.17,
        "elevation_max_m": 285.04,
        "elevation_mean_m": 240.43,
        "elevation_relief_m": 68.87,
        "outlet_lon": 77.23145,
        "outlet_lat": 28.56571,
        "outlet_elevation_m": 216.17,
        "dem_source": "Copernicus GLO-30 DSM (30m)",
        "methodology": "Barnes Priority-Flood hydrologic conditioning + D8 flow direction and accumulation"
      },
      "geometry": {
        "type": "MultiPolygon",
        "coordinates": [
          [
            [
              [
                77.19354382672957,
                28.56403044544148
              ],
              [
                77.19385033125295,
                28.564025489252003
              ],
              [
                77.19385594553985,
                28.56429608651992
              ],
              [
                77.19508196599038,
                28.564276254626385
              ],
              [
                77.19509881871002,
                28.56508804569335
              ],
              [
                77.19693786115297,
                28.565058276112417
              ],
              [
                77.19694910608138,
                28.565599469431604
              ],
              [
                77.19786863095354,
                28.56558457497398
              ],
              [
                77.19787425588274,
                28.565855171449144
              ],
              [
                77.19940679969926,
                28.565830333247096
              ],
              [
                77.19941805761948,
                28.566371525605987
              ],
              [
                77.19972456771576,
                28.566366555780107
              ],
              [
                77.19973019757524,
                28.566637151886216
              ],
              [
                77.20095624031559,
                28.566617265445927
              ],
              [
                77.20096187338443,
                28.56688786131764
              ],
              [
                77.20494651388123,
                28.566823153260174
              ],
              [
                77.20495215720592,
                28.567093748395834
              ],
              [
                77.20525866825184,
                28.567088765957195
              ],
              [
                77.20525302414421,
                28.566818170877298
              ],
              [
                77.20678557429144,
                28.56679324859158
              ],
              [
                77.20677992634707,
                28.566522653778797
              ],
              [
                77.20647341725628,
                28.566527639562985
              ],
              [
                77.20646777017268,
                28.566257044682587
              ],
              [
                77.20677427848058,
                28.566252058954202
              ],
              [
                77.20675733534843,
                28.565440274409497
              ],
              [
                77.20798335840648,
                28.56542032525178
              ],
              [
                77.20798900917077,
                28.565690919888546
              ],
              [
                77.20890852799472,
                28.565675950593224
              ],
              [
                77.20889722184687,
                28.565134761642955
              ],
              [
                77.20981673527201,
                28.56511978646039
              ],
              [
                77.20982239065552,
                28.565390380773824
              ],
              [
                77.21012889575745,
                28.565385387607684
              ],
              [
                77.21014020832419,
                28.5659265760873
              ],
              [
                77.21075322142553,
                28.565916587457295
              ],
              [
                77.21076453743584,
                28.56645777566603
              ],
              [
                77.21107104543523,
                28.566452780202127
              ],
              [
                77.21108802238464,
                28.567264562258835
              ],
              [
                77.21078151203649,
                28.567269557890477
              ],
              [
                77.21079848733943,
                28.568081340008515
              ],
              [
                77.20957243577126,
                28.568101316291525
              ],
              [
                77.20957809122976,
                28.5683719105308
              ],
              [
                77.20927157735976,
                28.56837690292879
              ],
              [
                77.20927723211325,
                28.568647497212126
              ],
              [
                77.20958374676624,
                28.568642504758248
              ],
              [
                77.20958940238071,
                28.568913098973887
              ],
              [
                77.2098959177387,
                28.568908105772667
              ],
              [
                77.20990157421417,
                28.569178699920588
              ],
              [
                77.21020809027718,
                28.569173705972
              ],
              [
                77.21021940502816,
                28.569714894120604
              ],
              [
                77.21083244005216,
                28.569704903925366
              ],
              [
                77.21083809911075,
                28.56997549787013
              ],
              [
                77.21267720700773,
                28.569945510352902
              ],
              [
                77.21267154325098,
                28.56967491674374
              ],
              [
                77.21634974121127,
                28.56961486769932
              ],
              [
                77.21634406813645,
                28.56934427475038
              ],
              [
                77.2166505833419,
                28.56933926622472
              ],
              [
                77.21665625719972,
                28.569609859117616
              ],
              [
                77.21849535148694,
                28.569579793106186
              ],
              [
                77.2184896729311,
                28.569309200549785
              ],
              [
                77.21971573109126,
                28.569289142937013
              ],
              [
                77.21972709454529,
                28.569830327589038
              ],
              [
                77.22064664204079,
                28.569815276782137
              ],
              [
                77.22065232623439,
                28.570085868921957
              ],
              [
                77.22095884269248,
                28.570080850547193
              ],
              [
                77.22097021288089,
                28.57062203467902
              ],
              [
                77.22127673082666,
                28.570617015500417
              ],
              [
                77.2212824168215,
                28.570887607492406
              ],
              [
                77.22158893547191,
                28.570882587566125
              ],
              [
                77.22159462232821,
                28.571153179490103
              ],
              [
                77.22190114168328,
                28.57114815881612
              ],
              [
                77.22190682940106,
                28.57141875067208
              ],
              [
                77.22221334946074,
                28.571413729250377
              ],
              [
                77.22221903804005,
                28.571684321038305
              ],
              [
                77.22313860009764,
                28.57166925245541
              ],
              [
                77.22314429110465,
                28.57193984406288
              ],
              [
                77.22559645940251,
                28.571899630297708
              ],
              [
                77.22557367078721,
                28.570817265596933
              ],
              [
                77.22526715315709,
                28.57082229451284
              ],
              [
                77.22525576088685,
                28.570281111978872
              ],
              [
                77.22494924474424,
                28.570286140090744
              ],
              [
                77.22494354950996,
                28.570015548749726
              ],
              [
                77.22463703407183,
                28.57002057611383
              ],
              [
                77.22462564540487,
                28.569479393283775
              ],
              [
                77.22585170042214,
                28.569459280128644
              ],
              [
                77.22584600307454,
                28.56918868892096
              ],
              [
                77.22645902854586,
                28.569178628307196
              ],
              [
                77.22644193227661,
                28.56836685495089
              ],
              [
                77.22674844254553,
                28.568361823775746
              ],
              [
                77.22674274316336,
                28.56809123268961
              ],
              [
                77.22735576189953,
                28.568081168377667
              ],
              [
                77.2273500610301,
                28.567810577392333
              ],
              [
                77.22826958619595,
                28.567795475907754
              ],
              [
                77.22826388305641,
                28.567524885079596
              ],
              [
                77.22887689787461,
                28.56751481407885
              ],
              [
                77.22887119324791,
                28.567244223351572
              ],
              [
                77.22948420618566,
                28.56723414969795
              ],
              [
                77.22948991237814,
                28.56750474031249
              ],
              [
                77.23071594044089,
                28.567484584482923
              ],
              [
                77.23070452187147,
                28.56694340369317
              ],
              [
                77.23101102712458,
                28.566938363120098
              ],
              [
                77.23100531717512,
                28.566667772763875
              ],
              [
                77.2313118215666,
                28.566662731555848
              ],
              [
                77.23130611091302,
                28.566392141244204
              ],
              [
                77.23161261444291,
                28.56638709940123
              ],
              [
                77.23160690308521,
                28.566116509134176
              ],
              [
                77.23130040033818,
                28.566121550920727
              ],
              [
                77.23129468984207,
                28.5658509605854
              ],
              [
                77.23160119180629,
                28.56584591885528
              ],
              [
                77.23159548060612,
                28.56557532856454
              ],
              [
                77.23128897942473,
                28.565580370238237
              ],
              [
                77.23128326908613,
                28.56530977987923
              ],
              [
                77.2315897694847,
                28.56530473826197
              ],
              [
                77.23158405844205,
                28.565034147947554
              ],
              [
                77.23127755882629,
                28.56503918950838
              ],
              [
                77.23127184864518,
                28.564768599125692
              ],
              [
                77.23035235167384,
                28.56478371949097
              ],
              [
                77.23035805950657,
                28.565054310042896
              ],
              [
                77.23005155957588,
                28.565059348838407
              ],
              [
                77.2300572667045,
                28.565329939434886
              ],
              [
                77.22944426504144,
                28.56534001506467
              ],
              [
                77.22944997068313,
                28.565610605762085
              ],
              [
                77.22853046524996,
                28.5656257141908
              ],
              [
                77.22853616862183,
                28.565896305045474
              ],
              [
                77.22608414441085,
                28.5659365642198
              ],
              [
                77.22608984159861,
                28.566207155513236
              ],
              [
                77.22578333743573,
                28.566212184855182
              ],
              [
                77.22577194470448,
                28.565671002143898
              ],
              [
                77.22515893927445,
                28.565681058528554
              ],
              [
                77.22516463403512,
                28.565951650002674
              ],
              [
                77.22485813041945,
                28.565956677214235
              ],
              [
                77.2248638244758,
                28.566227268732785
              ],
              [
                77.22425081544323,
                28.566237321194308
              ],
              [
                77.22425650801236,
                28.56650791281353
              ],
              [
                77.22395000259543,
                28.566512938063475
              ],
              [
                77.22394431080917,
                28.56624234638801
              ],
              [
                77.2233313013056,
                28.56625239470128
              ],
              [
                77.22333699152614,
                28.56652298648921
              ],
              [
                77.22241747433371,
                28.566538053942416
              ],
              [
                77.22240609866829,
                28.565996870017436
              ],
              [
                77.22148658546712,
                28.566011930911017
              ],
              [
                77.22148090010062,
                28.56574133876221
              ],
              [
                77.22117439632626,
                28.56574635762115
              ],
              [
                77.22115734304568,
                28.564934580935223
              ],
              [
                77.2208508415414,
                28.5649395989343
              ],
              [
                77.22083947464525,
                28.56439841430553
              ],
              [
                77.22053297462823,
                28.56440343150094
              ],
              [
                77.22052160961113,
                28.563862246712535
              ],
              [
                77.2202151110813,
                28.56386726310432
              ],
              [
                77.22020942947307,
                28.563596670636223
              ],
              [
                77.21959643374394,
                28.56360670123358
              ],
              [
                77.21958507389355,
                28.563065516037348
              ],
              [
                77.219278577477,
                28.563070530186817
              ],
              [
                77.21927289845203,
                28.562799937514832
              ],
              [
                77.21957939408586,
                28.56279492342149
              ],
              [
                77.21953395844402,
                28.560630182068753
              ],
              [
                77.21922746907173,
                28.560635195713115
              ],
              [
                77.21922179075159,
                28.560364602934666
              ],
              [
                77.21860881333737,
                28.56037462803749
              ],
              [
                77.21858610710086,
                28.55929225635656
              ],
              [
                77.2182796214068,
                28.559297267646755
              ],
              [
                77.21827394582597,
                28.55902667464085
              ],
              [
                77.2179674608362,
                28.559031685183776
              ],
              [
                77.21797313563444,
                28.55930227824576
              ],
              [
                77.21736016385495,
                28.559312297370216
              ],
              [
                77.21735449062191,
                28.559041704196066
              ],
              [
                77.21674152009466,
                28.55905172044364
              ],
              [
                77.21673584850501,
                28.558781127145544
              ],
              [
                77.21642936390664,
                28.558786134176504
              ],
              [
                77.2164236931778,
                28.55851554081053
              ],
              [
                77.21550424126119,
                28.558530557588252
              ],
              [
                77.2155099096423,
                28.558801151122328
              ],
              [
                77.21520342473116,
                28.55880615538858
              ],
              [
                77.21520909240785,
                28.559076748966856
              ],
              [
                77.21398314885136,
                28.559096759344076
              ],
              [
                77.21397748430503,
                28.558826165541806
              ],
              [
                77.21367099900316,
                28.558831166352153
              ],
              [
                77.2136766627669,
                28.559101760210407
              ],
              [
                77.21306369036365,
                28.559111759869506
              ],
              [
                77.21308633993877,
                28.56019413563204
              ],
              [
                77.21277985048953,
                28.56019913464864
              ],
              [
                77.21278551229588,
                28.560469728615676
              ],
              [
                77.2124790219859,
                28.560474726997
              ],
              [
                77.21247336096219,
                28.560204132974018
              ],
              [
                77.2115538919118,
                28.560219123802803
              ],
              [
                77.21155955058757,
                28.560489717993597
              ],
              [
                77.2109465692651,
                28.56049970853516
              ],
              [
                77.21095222645357,
                28.56077030282597
              ],
              [
                77.21064573489265,
                28.560775297115807
              ],
              [
                77.21064007848686,
                28.560504702769094
              ],
              [
                77.2103335876306,
                28.56050969631179
              ],
              [
                77.21032793208546,
                28.560239101897366
              ],
              [
                77.21002144193385,
                28.560244094692937
              ],
              [
                77.21001013264285,
                28.55970290571684
              ],
              [
                77.20939715523626,
                28.559712889010797
              ],
              [
                77.209391502273,
                28.55944229439326
              ],
              [
                77.20908501423537,
                28.559447284947552
              ],
              [
                77.20907371010793,
                28.5589060955653
              ],
              [
                77.20876722355759,
                28.558911085316662
              ],
              [
                77.2087615723934,
                28.558640490551955
              ],
              [
                77.2084550865477,
                28.55864547955628
              ],
              [
                77.20843813587047,
                28.557833695023692
              ],
              [
                77.20905110278845,
                28.55782371665897
              ],
              [
                77.20902284539287,
                28.55647074276014
              ],
              [
                77.2087163658855,
                28.55647573200881
              ],
              [
                77.20871071542271,
                28.556205137137738
              ],
              [
                77.2084042366199,
                28.556210125639435
              ],
              [
                77.2083759893872,
                28.554857150827576
              ],
              [
                77.20806951441884,
                28.55486213835897
              ],
              [
                77.20805256936148,
                28.554050353162527
              ],
              [
                77.20866551452578,
                28.554040377743718
              ],
              [
                77.20865986476433,
                28.553769782766285
              ],
              [
                77.2089663364472,
                28.553764794076148
              ],
              [
                77.20893243482065,
                28.55214122429852
              ],
              [
                77.20862596783196,
                28.552146212653557
              ],
              [
                77.20861466947785,
                28.551605022521443
              ],
              [
                77.2089211349019,
                28.551600034278113
              ],
              [
                77.2089154850594,
                28.551329439250186
              ],
              [
                77.20922194962323,
                28.551324450371727
              ],
              [
                77.20921629907637,
                28.55105385538784
              ],
              [
                77.20952276277995,
                28.551048865874264
              ],
              [
                77.20951711152875,
                28.550778270934423
              ],
              [
                77.20921064860745,
                28.550783260392127
              ],
              [
                77.20919934790342,
                28.550242070365268
              ],
              [
                77.20889288646872,
                28.550247059020297
              ],
              [
                77.20888723701584,
                28.549976463933284
              ],
              [
                77.20858077628547,
                28.549981451841525
              ],
              [
                77.20855253410103,
                28.548628475949993
              ],
              [
                77.20885899092032,
                28.548623488320988
              ],
              [
                77.20884204419801,
                28.547811702811824
              ],
              [
                77.20914849859285,
                28.547806714659487
              ],
              [
                77.20913155022535,
                28.546994929211536
              ],
              [
                77.20882509817694,
                28.546999917196313
              ],
              [
                77.20881380121912,
                28.546458726726907
              ],
              [
                77.20789444929915,
                28.546473686201125
              ],
              [
                77.20788315734553,
                28.54593249534944
              ],
              [
                77.20757670811396,
                28.545937480347533
              ],
              [
                77.20755977311384,
                28.54512569381393
              ],
              [
                77.20786621999919,
                28.5451207089833
              ],
              [
                77.20784928335371,
                28.544308922510837
              ],
              [
                77.20662350472962,
                28.544328857018872
              ],
              [
                77.20662914707214,
                28.54459945274474
              ],
              [
                77.20632270143948,
                28.544604434700585
              ],
              [
                77.20631141839633,
                28.544063243125475
              ],
              [
                77.20508564134387,
                28.544083163594856
              ],
              [
                77.20509127969845,
                28.54435375961139
              ],
              [
                77.20478483445885,
                28.54435873805755
              ],
              [
                77.20479047210917,
                28.544629334118028
              ],
              [
                77.2038711335777,
                28.544644265479015
              ],
              [
                77.20387676895965,
                28.544914861694885
              ],
              [
                77.20357032184498,
                28.54491983748935
              ],
              [
                77.20356468724509,
                28.544649241217765
              ],
              [
                77.20295179434669,
                28.544659190622877
              ],
              [
                77.20293489570551,
                28.54384740140303
              ],
              [
                77.20262845148585,
                28.543852374902308
              ],
              [
                77.20262281954285,
                28.54358177841638
              ],
              [
                77.2041550359541,
                28.543556904290813
              ],
              [
                77.20412685785509,
                28.542203923076766
              ],
              [
                77.20382041863813,
                28.542208899004777
              ],
              [
                77.20381478403348,
                28.541938302670815
              ],
              [
                77.20350834552075,
                28.541943277852397
              ],
              [
                77.20350271177574,
                28.541672681450905
              ],
              [
                77.20319627396722,
                28.541677655886055
              ],
              [
                77.2032019069303,
                28.54194825234325
              ],
              [
                77.20289546826216,
                28.5419532261434
              ],
              [
                77.20290110052099,
                28.542223822644484
              ],
              [
                77.20014314197533,
                28.542268556264403
              ],
              [
                77.20013751675403,
                28.541997959262364
              ],
              [
                77.19983107730945,
                28.54200292615531
              ],
              [
                77.19981420445689,
                28.54119113491148
              ],
              [
                77.19950776728052,
                28.54119610094686
              ],
              [
                77.19948527435747,
                28.540113712234028
              ],
              [
                77.19917884023111,
                28.540118677356283
              ],
              [
                77.19917321797612,
                28.539848080092952
              ],
              [
                77.20009251777691,
                28.539833182821024
              ],
              [
                77.20008689325391,
                28.539562585712723
              ],
              [
                77.20100619001086,
                28.53954768239175
              ],
              [
                77.20098930987092,
                28.538735891496767
              ],
              [
                77.20068288004171,
                28.53874085979415
              ],
              [
                77.20066600294572,
                28.53792906862598
              ],
              [
                77.2000531477453,
                28.537939002815065
              ],
              [
                77.20004189986307,
                28.53739780842141
              ],
              [
                77.19850976832222,
                28.537422631252475
              ],
              [
                77.19850414840629,
                28.537152033759927
              ],
              [
                77.19819772264725,
                28.53715699619878
              ],
              [
                77.19820334178142,
                28.5374275937469
              ],
              [
                77.19789691516313,
                28.537432555550744
              ],
              [
                77.19790253359305,
                28.53770315314264
              ],
              [
                77.19759610611547,
                28.53770811431145
              ],
              [
                77.1976017238411,
                28.537978711947108
              ],
              [
                77.1969888670899,
                28.537988632324012
              ],
              [
                77.19698325092783,
                28.537718034577246
              ],
              [
                77.19667682321779,
                28.537722993674244
              ],
              [
                77.19667120791497,
                28.537452395860136
              ],
              [
                77.19575192666545,
                28.537467268840896
              ],
              [
                77.19575753962296,
                28.537737866821576
              ],
              [
                77.19514468350589,
                28.537747778800096
              ],
              [
                77.19515029497722,
                28.538018376879997
              ],
              [
                77.19484386602079,
                28.53802333188884
              ],
              [
                77.19483825533125,
                28.537752733753447
              ],
              [
                77.19422539874977,
                28.537762641588316
              ],
              [
                77.19421418072997,
                28.537221445060194
              ],
              [
                77.19390775388672,
                28.53722639783077
              ],
              [
                77.19390214577466,
                28.536955799493537
              ],
              [
                77.19420857183614,
                28.53695084677844
              ],
              [
                77.19420296301969,
                28.53668024848489
              ],
              [
                77.19450938822206,
                28.536675295134675
              ],
              [
                77.19449816925778,
                28.536134098623126
              ],
              [
                77.19419174561888,
                28.536139051862374
              ],
              [
                77.19418613703455,
                28.535868453533425
              ],
              [
                77.1935732910881,
                28.53587835782931
              ],
              [
                77.193578898109,
                28.536148956269194
              ],
              [
                77.19327247423803,
                28.536153907436756
              ],
              [
                77.1932892934196,
                28.536965702851983
              ],
              [
                77.19267644075518,
                28.53697560344806
              ],
              [
                77.1926820457402,
                28.53724620200709
              ],
              [
                77.19206919120296,
                28.537256099951662
              ],
              [
                77.19208039827781,
                28.537797297256056
              ],
              [
                77.19116111120154,
                28.53781213932587
              ],
              [
                77.19115550997083,
                28.537541540513345
              ],
              [
                77.19084908157265,
                28.53754648643332
              ],
              [
                77.19083788090659,
                28.537005288662094
              ],
              [
                77.1905314539947,
                28.537010233780684
              ],
              [
                77.19052585455931,
                28.53673963482199
              ],
              [
                77.19113870674232,
                28.536729744004987
              ],
              [
                77.19113310582068,
                28.53645914514528
              ],
              [
                77.19143953101454,
                28.536454198756303
              ],
              [
                77.19142272636802,
                28.535642402272593
              ],
              [
                77.19111630351935,
                28.53564734849537
              ],
              [
                77.19111070290676,
                28.535376749588483
              ],
              [
                77.19019143624232,
                28.535391583947327
              ],
              [
                77.19018583805207,
                28.53512098486248
              ],
              [
                77.18987941645783,
                28.535125928212295
              ],
              [
                77.1898738191265,
                28.534855329060292
              ],
              [
                77.18956739823672,
                28.534860271664204
              ],
              [
                77.18955620536906,
                28.534319073214085
              ],
              [
                77.18924978596542,
                28.534324015016765
              ],
              [
                77.18924419042905,
                28.534053415718663
              ],
              [
                77.18740567707648,
                28.534083051701785
              ],
              [
                77.1874000863072,
                28.53381245205994
              ],
              [
                77.18709366792675,
                28.533817388918358
              ],
              [
                77.18707130874739,
                28.53273499001189
              ],
              [
                77.18737772400134,
                28.532730053374657
              ],
              [
                77.18737213361769,
                28.53245945367385
              ],
              [
                77.18767854801291,
                28.532454516401447
              ],
              [
                77.1876673659138,
                28.53191331707508
              ],
              [
                77.18797377866875,
                28.531908379222827
              ],
              [
                77.18796818695333,
                28.53163777959727
              ],
              [
                77.18766177497996,
                28.53164271739421
              ],
              [
                77.18765618412323,
                28.531372117701544
              ],
              [
                77.18734977285426,
                28.531377054752735
              ],
              [
                77.18732741332475,
                28.530294655642958
              ],
              [
                77.1876338214676,
                28.53028971881298
              ],
              [
                77.18762264060256,
                28.529748519297943
              ],
              [
                77.1873162340227,
                28.52975345601732
              ],
              [
                77.18731064448735,
                28.52948285618682
              ],
              [
                77.18485939532515,
                28.529522324645512
              ],
              [
                77.18486497860866,
                28.529792924918144
              ],
              [
                77.18455857133515,
                28.52979785542396
              ],
              [
                77.18456415391418,
                28.53006845574004
              ],
              [
                77.18425774578218,
                28.530073385610685
              ],
              [
                77.18427449163683,
                28.53088518665385
              ],
              [
                77.18396808108324,
                28.53089011599974
              ],
              [
                77.18397366240727,
                28.531160716379098
              ],
              [
                77.18336083950605,
                28.531170573109986
              ],
              [
                77.1833552597451,
                28.530899972620215
              ],
              [
                77.18274243809905,
                28.530909826478958
              ],
              [
                77.18273685997816,
                28.530639225867017
              ],
              [
                77.18120480842417,
                28.530663848155456
              ],
              [
                77.18119923428787,
                28.53039324725591
              ],
              [
                77.18058641469096,
                28.530403091228024
              ],
              [
                77.18058084219459,
                28.530132490206427
              ],
              [
                77.17996802385319,
                28.5301423313066
              ],
              [
                77.1799624529967,
                28.529871730162974
              ],
              [
                77.17965604449223,
                28.529876649622327
              ],
              [
                77.17963933472839,
                28.529064845955432
              ],
              [
                77.17933292849153,
                28.529069764559075
              ],
              [
                77.17929951572721,
                28.527446156576538
              ],
              [
                77.17899311410218,
                28.527451074159252
              ],
              [
                77.17897641110136,
                28.52663926984364
              ],
              [
                77.17775081320993,
                28.526658932610246
              ],
              [
                77.17775637767451,
                28.52692953428085
              ],
              [
                77.17683717610564,
                28.526944274272566
              ],
              [
                77.17683161398521,
                28.526673672436836
              ],
              [
                77.17652521409016,
                28.526678584331723
              ],
              [
                77.17651965282785,
                28.52640798242919
              ],
              [
                77.17682605194153,
                28.52640307058933
              ],
              [
                77.17679824287414,
                28.52505006117509
              ],
              [
                77.1764918476672,
                28.525054972739824
              ],
              [
                77.17648628686524,
                28.524784370766607
              ],
              [
                77.17617989236288,
                28.524789281586045
              ],
              [
                77.17616877255172,
                28.52424807749424
              ],
              [
                77.17586237953526,
                28.524252987513382
              ],
              [
                77.17584570273765,
                28.523441181122312
              ],
              [
                77.1755393119883,
                28.523446090286196
              ],
              [
                77.17553375399041,
                28.523175488077282
              ],
              [
                77.17522736394562,
                28.52318039649595
              ],
              [
                77.17523292116226,
                28.523450998759852
              ],
              [
                77.17462013928018,
                28.52346081363646
              ],
              [
                77.17461458362605,
                28.52319021126259
              ],
              [
                77.17430819335128,
                28.523195117610577
              ],
              [
                77.17430263855505,
                28.52292451516997
              ],
              [
                77.17399624898488,
                28.52292942077276
              ],
              [
                77.17398514118479,
                28.52238821574627
              ],
              [
                77.17429152919249,
                28.522383310253403
              ],
              [
                77.17428597462617,
                28.52211270777745
              ],
              [
                77.17397958739967,
                28.522117613215364
              ],
              [
                77.1739740336912,
                28.521847010672676
              ],
              [
                77.17305487389561,
                28.5218617226804
              ],
              [
                77.17306042526049,
                28.52213232538792
              ],
              [
                77.17183487466927,
                28.52215193195521
              ],
              [
                77.17182932642923,
                28.521881329028016
              ],
              [
                77.1712165522367,
                28.52189112806067
              ],
              [
                77.17122209891433,
                28.522161731097658
              ],
              [
                77.17060932285325,
                28.52217152747929
              ],
              [
                77.17062041331319,
                28.522712733737457
              ],
              [
                77.17031402360543,
                28.522717631002706
              ],
              [
                77.17030847911845,
                28.52244702782464
              ],
              [
                77.17000209011542,
                28.52245192434481
              ],
              [
                77.16999654648616,
                28.52218132110011
              ],
              [
                77.16969015818786,
                28.52218621687521
              ],
              [
                77.1696846154163,
                28.521915613563884
              ],
              [
                77.16937822782276,
                28.521920508593936
              ],
              [
                77.16936714407144,
                28.521379301826283
              ],
              [
                77.16906075796382,
                28.521384196056466
              ],
              [
                77.16904413525384,
                28.520572385652187
              ],
              [
                77.1687377514133,
                28.520577279027695
              ],
              [
                77.16873221144402,
                28.520306675481237
              ],
              [
                77.16811944509593,
                28.520316460052143
              ],
              [
                77.16811390676537,
                28.52004585638427
              ],
              [
                77.16750114167391,
                28.520055638084962
              ],
              [
                77.16749560498202,
                28.519785034295726
              ],
              [
                77.16718922310282,
                28.51978992405606
              ],
              [
                77.16718368726846,
                28.519519320200263
              ],
              [
                77.16687730609401,
                28.519524209215678
              ],
              [
                77.16687177111716,
                28.51925360529333
              ],
              [
                77.16625901010137,
                28.519263381144217
              ],
              [
                77.16624794350115,
                28.518722173045138
              ],
              [
                77.16594156444091,
                28.518727059825878
              ],
              [
                77.16593603203641,
                28.518456455703934
              ],
              [
                77.16562965368095,
                28.518461341739812
              ],
              [
                77.16562412213385,
                28.51819073755135
              ],
              [
                77.16531774448312,
                28.518195622842384
              ],
              [
                77.16531221379341,
                28.517925018587412
              ],
              [
                77.16500583684744,
                28.517929903133613
              ],
              [
                77.16500030701509,
                28.51765929881214
              ],
              [
                77.16469393077388,
                28.51766418261353
              ],
              [
                77.16468840179888,
                28.517393578225565
              ],
              [
                77.16254377144216,
                28.517427745130014
              ],
              [
                77.16254929494981,
                28.517698349900826
              ],
              [
                77.16193654117114,
                28.51770810577213
              ],
              [
                77.16193101922558,
                28.517437500891994
              ],
              [
                77.161624643003,
                28.51744237773786
              ],
              [
                77.16161912191467,
                28.51717177279132
              ],
              [
                77.16131274639694,
                28.51717664889246
              ],
              [
                77.16130722616582,
                28.516906043879516
              ],
              [
                77.16100085135297,
                28.516910919235954
              ],
              [
                77.16099533197904,
                28.516640314156614
              ],
              [
                77.16068895787105,
                28.51664518876836
              ],
              [
                77.16068343935427,
                28.516374583622635
              ],
              [
                77.16037706595115,
                28.516379457489705
              ],
              [
                77.1603825836869,
                28.516650062690047
              ],
              [
                77.16007620942663,
                28.516654935921668
              ],
              [
                77.16008172645749,
                28.516925541164856
              ],
              [
                77.15977535134006,
                28.516930413761017
              ],
              [
                77.15978086766602,
                28.51720101904704
              ],
              [
                77.15947449169144,
                28.51720589100772
              ],
              [
                77.15949103878282,
                28.51801770695899
              ],
              [
                77.15918466038896,
                28.518022578393346
              ],
              [
                77.15919569060158,
                28.51856378907789
              ],
              [
                77.15950207055761,
                28.51855891753436
              ],
              [
                77.15950758655916,
                28.518829522804403
              ],
              [
                77.15981396722019,
                28.51882465051616
              ],
              [
                77.15982500101386,
                28.519365860911773
              ],
              [
                77.160131383161,
                28.5193609878242
              ],
              [
                77.16013690095315,
                28.519631592949754
              ],
              [
                77.15983051802489,
                28.519636466091928
              ],
              [
                77.15983603511204,
                28.519907071260327
              ],
              [
                77.1595296513265,
                28.51991194376694
              ],
              [
                77.15953516770861,
                28.520182548978163
              ],
              [
                77.15922878306581,
                28.520187420849215
              ],
              [
                77.15923429874289,
                28.520458026103267
              ],
              [
                77.1589279132428,
                28.520462897338728
              ],
              [
                77.15894445838707,
                28.521274713194053
              ],
              [
                77.15863807046733,
                28.52127958390306
              ],
              [
                77.15865461395278,
                28.52209139981623
              ],
              [
                77.1583482236133,
                28.52209626999874
              ],
              [
                77.15836476543977,
                28.522908085969757
              ],
              [
                77.15805837268044,
                28.52291295562572
              ],
              [
                77.15806388599347,
                28.52318356098042
              ],
              [
                77.1577574923768,
                28.523188430000697
              ],
              [
                77.15776300498462,
                28.523459035398187
              ],
              [
                77.15745661051061,
                28.523463903782748
              ],
              [
                77.15746212241318,
                28.523734509223026
              ],
              [
                77.1571557270818,
                28.523739376971864
              ],
              [
                77.15716674955247,
                28.524280587926203
              ],
              [
                77.15747314644648,
                28.524275720068292
              ],
              [
                77.15747865857722,
                28.52454632547328
              ],
              [
                77.15778505617651,
                28.524541456870537
              ],
              [
                77.15779056916462,
                28.524812062209215
              ],
              [
                77.1580969674692,
                28.524807192861626
              ],
              [
                77.15811350923404,
                28.52561900864343
              ],
              [
                77.15841990980664,
                28.525614138441856
              ],
              [
                77.1584254246618,
                28.525884743624367
              ],
              [
                77.15811902330782,
                28.525889613880505
              ],
              [
                77.15812453745767,
                28.526160219105808
              ],
              [
                77.15781813524623,
                28.52616508872617
              ],
              [
                77.15782364869074,
                28.526435693994273
              ],
              [
                77.15721084247683,
                28.526445431273068
              ],
              [
                77.15721635443458,
                28.526716036638494
              ],
              [
                77.15690995043212,
                28.5267209042969
              ],
              [
                77.1569209730129,
                28.527262115101536
              ],
              [
                77.15722737857821,
                28.527257247334063
              ],
              [
                77.15723840302607,
                28.52779845798257
              ],
              [
                77.15754481007825,
                28.527793589415648
              ],
              [
                77.15755583639324,
                28.528334799908023
              ],
              [
                77.15786224493233,
                28.528329930541613
              ],
              [
                77.15786775898542,
                28.528600535715604
              ],
              [
                77.15756134966485,
                28.52860540513656
              ],
              [
                77.1575668630125,
                28.528876010353343
              ],
              [
                77.15726045283435,
                28.528880879138434
              ],
              [
                77.15726596547655,
                28.529151484397996
              ],
              [
                77.15695955444085,
                28.529156352547204
              ],
              [
                77.15696506637757,
                28.529426957849537
              ],
              [
                77.15727147819483,
                28.529422089645784
              ],
              [
                77.15727699098913,
                28.52969269488182
              ],
              [
                77.15758340351188,
                28.529687825933095
              ],
              [
                77.15759443089179,
                28.530229036260778
              ],
              [
                77.15820725883525,
                28.5302192960738
              ],
              [
                77.15821828964575,
                28.530760506136204
              ],
              [
                77.15791187414891,
                28.530765376684045
              ],
              [
                77.1579173888867,
                28.531035981752158
              ],
              [
                77.15822380516514,
                28.531031111149762
              ],
              [
                77.15822932076061,
                28.531301716151557
              ],
              [
                77.15853573774453,
                28.531296844804107
              ],
              [
                77.15855228733241,
                28.532108659575183
              ],
              [
                77.15885870658511,
                28.53210378737353
              ],
              [
                77.15886422404826,
                28.53237439221911
              ],
              [
                77.15917064400647,
                28.53236951927237
              ],
              [
                77.15917616232738,
                28.532640124051603
              ],
              [
                77.15948258299113,
                28.532635250359753
              ],
              [
                77.15949362142469,
                28.533176459773735
              ],
              [
                77.15980004357563,
                28.53317158528217
              ],
              [
                77.15981660414212,
                28.533983399151087
              ],
              [
                77.16012302856198,
                28.533978523805153
              ],
              [
                77.16013407088387,
                28.53451973288304
              ],
              [
                77.16044049679101,
                28.534514856737317
              ],
              [
                77.16045154098106,
                28.5350560656589
              ],
              [
                77.16075796837548,
                28.53505118871335
              ],
              [
                77.16076901443377,
                28.535592397478613
              ],
              [
                77.16107544331553,
                28.535587519733205
              ],
              [
                77.16108649124217,
                28.536128728342124
              ],
              [
                77.16139292161128,
                28.53612384979683
              ],
              [
                77.16139844647071,
                28.536394454028997
              ],
              [
                77.1617048775454,
                28.536389574738436
              ],
              [
                77.16171040326284,
                28.53666017890418
              ],
              [
                77.16201683504313,
                28.536655298868336
              ],
              [
                77.16203341499833,
                28.537467111130965
              ],
              [
                77.16264628302113,
                28.537457348659366
              ],
              [
                77.16265733983322,
                28.53799855655692
              ],
              [
                77.16296377529393,
                28.537993674175773
              ],
              [
                77.16297483397483,
                28.538534881916878
              ],
              [
                77.16328127092301,
                28.538529998735676
              ],
              [
                77.16329233147283,
                28.53907120632032
              ],
              [
                77.1635987699085,
                28.53906632233904
              ],
              [
                77.16360430107976,
                28.539336926059
              ],
              [
                77.16391074022104,
                28.53933204133232
              ],
              [
                77.16391627225052,
                28.53960264498579
              ],
              [
                77.1642227120974,
                28.53959775951369
              ],
              [
                77.16422824498513,
                28.539868363100684
              ],
              [
                77.16545400673706,
                28.53984881408621
              ],
              [
                77.16546507899703,
                28.54039002078699
              ],
              [
                77.16577152080801,
                28.54038513169707
              ],
              [
                77.16577705783449,
                28.540655734975044
              ],
              [
                77.16638994279121,
                28.540645954613467
              ],
              [
                77.16639548145803,
                28.54091655777014
              ],
              [
                77.1660890382359,
                28.540921448351064
              ],
              [
                77.16609457619714,
                28.54119205155073
              ],
              [
                77.16578813211663,
                28.541196941495674
              ],
              [
                77.16580474411272,
                28.542008751188305
              ],
              [
                77.16611119053923,
                28.54200386107907
              ],
              [
                77.16611672880603,
                28.542274464231635
              ],
              [
                77.16642317593816,
                28.54226957337685
              ],
              [
                77.16642871506342,
                28.542540176462857
              ],
              [
                77.16673516290116,
                28.542535284862502
              ],
              [
                77.16677394439193,
                28.544429505751435
              ],
              [
                77.16708039762777,
                28.544424613076764
              ],
              [
                77.16709148030577,
                28.544965818829457
              ],
              [
                77.16831729874164,
                28.54494624078386
              ],
              [
                77.16832284332385,
                28.545216843423308
              ],
              [
                77.16862929852378,
                28.54521194712993
              ],
              [
                77.16864593507573,
                28.5460237548131
              ],
              [
                77.16803301990646,
                28.546033547037943
              ],
              [
                77.16806074120097,
                28.547386560155925
              ],
              [
                77.16836720273486,
                28.547381664114834
              ],
              [
                77.16838938427607,
                28.548464074177915
              ],
              [
                77.16900231337232,
                28.548454279584256
              ],
              [
                77.16901895502508,
                28.549266086678866
              ],
              [
                77.1693254218053,
                28.54926118818105
              ],
              [
                77.16933096995824,
                28.54953179046751
              ],
              [
                77.16963743744421,
                28.549526891223863
              ],
              [
                77.16965963395053,
                28.550609300032477
              ],
              [
                77.16996610448932,
                28.550604399878374
              ],
              [
                77.1699716545896,
                28.55087500199621
              ],
              [
                77.17027812583417,
                28.550870101096223
              ],
              [
                77.17028922782916,
                28.551411305186797
              ],
              [
                77.1705957005619,
                28.55140640348602
              ],
              [
                77.17060680442793,
                28.551947607419713
              ],
              [
                77.17121975279328,
                28.551937801725458
              ],
              [
                77.17121419925718,
                28.5516671998743
              ],
              [
                77.17152067254256,
                28.551662296045496
              ],
              [
                77.17151511830068,
                28.551391694237452
              ],
              [
                77.17182159072706,
                28.55138678977252
              ],
              [
                77.17182714575134,
                28.55165739152565
              ],
              [
                77.17305303782011,
                28.55163776653582
              ],
              [
                77.17304747966631,
                28.551367165002425
              ],
              [
                77.17335395170949,
                28.551362257082307
              ],
              [
                77.17334283406716,
                28.55082105409006
              ],
              [
                77.17395577479402,
                28.55081123639659
              ],
              [
                77.17395021452317,
                28.550540634992714
              ],
              [
                77.17425668398923,
                28.550535725164426
              ],
              [
                77.17425112301274,
                28.550265123803747
              ],
              [
                77.17486406015006,
                28.550255302184112
              ],
              [
                77.1748529352979,
                28.549714099647332
              ],
              [
                77.17515940218685,
                28.549709187911006
              ],
              [
                77.17515383909355,
                28.549438586679933
              ],
              [
                77.1748473729869,
                28.549443498361263
              ],
              [
                77.17484181075262,
                28.549172897063407
              ],
              [
                77.175148276077,
                28.549167985437073
              ],
              [
                77.17514271313716,
                28.548897384182432
              ],
              [
                77.17544917760252,
                28.548892471920137
              ],
              [
                77.17543805038852,
                28.548351269485504
              ],
              [
                77.17666390122433,
                28.548331613966905
              ],
              [
                77.1766527680594,
                28.547790411925305
              ],
              [
                77.17695922901196,
                28.547785496428382
              ],
              [
                77.17695366176244,
                28.547514895444944
              ],
              [
                77.17756658187271,
                28.54750506248842
              ],
              [
                77.17756101313557,
                28.5472344616033
              ],
              [
                77.17848039037825,
                28.547219707151868
              ],
              [
                77.17847481937135,
                28.546949106420172
              ],
              [
                77.18123293990894,
                28.546904806252996
              ],
              [
                77.18123851795556,
                28.547175406488634
              ],
              [
                77.1815449761907,
                28.547170480738206
              ],
              [
                77.18155055509645,
                28.54744108090689
              ],
              [
                77.18185701403682,
                28.547436154410395
              ],
              [
                77.18186259380175,
                28.547706754512127
              ],
              [
                77.18155613407916,
                28.547711681063788
              ],
              [
                77.18156171313883,
                28.547982281208903
              ],
              [
                77.18125525255707,
                28.547987207124798
              ],
              [
                77.18126083091146,
                28.54825780731328
              ],
              [
                77.18218021477254,
                28.54824302732731
              ],
              [
                77.18217463407147,
                28.547972427304327
              ],
              [
                77.18370693505581,
                28.547947780451757
              ],
              [
                77.1837236891235,
                28.548759579657382
              ],
              [
                77.18525599991554,
                28.548734914703303
              ],
              [
                77.1852615886701,
                28.549005514138745
              ],
              [
                77.18556805137953,
                28.54900057901985
              ],
              [
                77.18557364099344,
                28.549271178388242
              ],
              [
                77.18588010440804,
                28.549266242523135
              ],
              [
                77.18588569488132,
                28.549536841824462
              ],
              [
                77.18619215900108,
                28.54953190521313
              ],
              [
                77.18619775033375,
                28.549802504447392
              ],
              [
                77.18773007368694,
                28.549777810749813
              ],
              [
                77.18773566900818,
                28.550048409695783
              ],
              [
                77.1880421342296,
                28.550043468828044
              ],
              [
                77.1880365381261,
                28.5497728699374
              ],
              [
                77.18834300248807,
                28.549767928434022
              ],
              [
                77.18833740567946,
                28.5494973295869
              ],
              [
                77.18895033260725,
                28.54948744461793
              ],
              [
                77.1889559309804,
                28.549758043354377
              ],
              [
                77.18956885916386,
                28.549748155510876
              ],
              [
                77.18958005927097,
                28.550289352726928
              ],
              [
                77.18988652481141,
                28.550284407657998
              ],
              [
                77.18991453034256,
                28.551637400214812
              ],
              [
                77.19022099971738,
                28.551632454178023
              ],
              [
                77.19022660183774,
                28.55190305259861
              ],
              [
                77.19053307191763,
                28.551898105815425
              ],
              [
                77.19053867489762,
                28.552168704168828
              ],
              [
                77.1908451456826,
                28.55216375663922
              ],
              [
                77.19085074952226,
                28.552434354925435
              ],
              [
                77.19054427795488,
                28.55243930251043
              ],
              [
                77.19054988108944,
                28.552709900840224
              ],
              [
                77.18932399091774,
                28.55272968449134
              ],
              [
                77.18932959099998,
                28.553000283030848
              ],
              [
                77.18902311748153,
                28.55300522727136
              ],
              [
                77.18902871685859,
                28.553275825854424
              ],
              [
                77.18841576802518,
                28.55328571237298
              ],
              [
                77.18842136591462,
                28.553556311054926
              ],
              [
                77.1875019397382,
                28.55357113581575
              ],
              [
                77.18751313105405,
                28.5541123334762
              ],
              [
                77.18720665394265,
                28.55411727379162
              ],
              [
                77.18722343914789,
                28.55492907035975
              ],
              [
                77.18691695961188,
                28.55493401014998
              ],
              [
                77.18692814856955,
                28.555475207913688
              ],
              [
                77.18723462967053,
                28.55547026801285
              ],
              [
                77.18724582050189,
                28.556011465618756
              ],
              [
                77.18755230309074,
                28.556006524916164
              ],
              [
                77.18756349579586,
                28.55654772236425
              ],
              [
                77.1878699798726,
                28.556542780859875
              ],
              [
                77.1878755771235,
                28.5568133795109
              ],
              [
                77.18818206190561,
                28.556808437260035
              ],
              [
                77.18819325820415,
                28.557349634416035
              ],
              [
                77.18849974447419,
                28.557344691363326
              ],
              [
                77.18850534352187,
                28.55761528986829
              ],
              [
                77.18881183049727,
                28.557610346069062
              ],
              [
                77.18883423059063,
                28.558692739749535
              ],
              [
                77.18914072061925,
                28.558687795037706
              ],
              [
                77.1891575238482,
                28.559499590008098
              ],
              [
                77.18946401614753,
                28.55949464443896
              ],
              [
                77.189469618161,
                28.559765242683465
              ],
              [
                77.1900826040932,
                28.559755349360724
              ],
              [
                77.19008820774931,
                28.560025947482675
              ],
              [
                77.19039470138217,
                28.560020999729055
              ],
              [
                77.19038909694339,
                28.559750401662484
              ],
              [
                77.19069558971628,
                28.559745453273003
              ],
              [
                77.19070680023651,
                28.56028664928354
              ],
              [
                77.19162628278741,
                28.560271799635156
              ],
              [
                77.19163189051157,
                28.560542397456494
              ],
              [
                77.19224488005757,
                28.560532494123745
              ],
              [
                77.19225609886877,
                28.56107368950929
              ],
              [
                77.19256259509116,
                28.561068736695137
              ],
              [
                77.19256820539553,
                28.561339334314763
              ],
              [
                77.19318119917361,
                28.561329426501707
              ],
              [
                77.19317558730378,
                28.56105882899299
              ],
              [
                77.19409507504226,
                28.56104396225518
              ],
              [
                77.19408946090168,
                28.56077336490107
              ],
              [
                77.19439595587696,
                28.560768407994736
              ],
              [
                77.19440157080024,
                28.561039005293356
              ],
              [
                77.19470806648079,
                28.56103404764025
              ],
              [
                77.19473053007924,
                28.562116436494684
              ],
              [
                77.19503702881329,
                28.56211147792829
              ],
              [
                77.1950426456893,
                28.562382075056878
              ],
              [
                77.19534914512865,
                28.562377115743665
              ],
              [
                77.1953547628649,
                28.562647712804935
              ],
              [
                77.19566126300953,
                28.562642752744896
              ],
              [
                77.19566688160604,
                28.562913349738828
              ],
              [
                77.19536038067861,
                28.562918309854396
              ],
              [
                77.19536599856981,
                28.563188906892044
              ],
              [
                77.19475299491695,
                28.56319882516021
              ],
              [
                77.19475861132001,
                28.56346942229707
              ],
              [
                77.19414560579172,
                28.563479337910874
              ],
              [
                77.19415122070659,
                28.563749935146912
              ],
              [
                77.19353821330292,
                28.563759848106283
              ],
              [
                77.19354382672957,
                28.56403044544148
              ]
            ]
          ],
          [
            [
              [
                77.19353259995367,
                28.563489250759282
              ],
              [
                77.19322609691852,
                28.563494206146462
              ],
              [
                77.19323170948495,
                28.563764803548935
              ],
              [
                77.19353821330292,
                28.563759848106283
              ],
              [
                77.19353259995367,
                28.563489250759282
              ]
            ]
          ]
        ]
      }
    }
  ]
}